NORAD_CAT_ID,OBJECT_NAME,OBJECT_TYPE,EPOCH,MEAN_MOTION,ECCENTRICITY,INCLINATION,RA_OF_ASC_NODE,ARG_OF_PERICENTER,MEAN_ANOMALY,BSTAR,MEAN_MOTION_DOT,MEAN_MOTION_DDOT,TLE_LINE0,TLE_LINE1,TLE_LINE2,SEMIMAJOR_AXIS,PERIOD,APOGEE,PERIGEE,DECAYED
52112.0,STARLINK-3734,PAYLOAD,2024-05-13 04:11:57,15.08820623,5.91e-05,53.2167,186.7324,171.0384,189.0618,0.0010816,0.00016959,0.0,0 STARLINK-3734,1 52112U 22029AA  24134.17497341  .00016959  00000-0  10816-2 0  9994,2 52112  53.2167 186.7324 0000591 171.0384 189.0618 15.08820623120312,6917.94,95.439,540.213,539.396,0.0
52112.0,STARLINK-3734,PAYLOAD,2024-05-13 10:33:30,15.08851868,0.0001278,53.216,185.5431,96.7381,263.3757,0.00078484,0.00012229,0.0,0 STARLINK-3734,1 52112U 22029AA  24134.43993217  .00012229  00000-0  78484-3 0  9998,2 52112  53.2160 185.5431 0001278  96.7381 263.3757 15.08851868120353,6917.844,95.437,540.593,538.825,0.0
52112.0,STARLINK-3734,PAYLOAD,2024-05-13 20:05:48,15.08858821,0.0001254,53.2162,183.7586,97.039,263.0745,0.00045715,6.999e-05,0.0,0 STARLINK-3734,1 52112U 22029AA  24134.83736700  .00006999  00000-0  45715-3 0  9992,2 52112  53.2162 183.7586 0001254  97.0390 263.0745 15.08858821120411,6917.823,95.436,540.555,538.82,0.0
52112.0,STARLINK-3734,PAYLOAD,2024-05-14 10:24:15,15.08873151,0.0001021,53.2152,181.0795,82.4639,277.6469,0.0010266,0.00016103,0.0,0 STARLINK-3734,1 52112U 22029AA  24135.43351651  .00016103  00000-0  10266-2 0  9997,2 52112  53.2152 181.0795 0001021  82.4639 277.6469 15.08873151120506,6917.779,95.435,540.35,538.938,0.0
52112.0,STARLINK-3734,PAYLOAD,2024-05-14 19:56:34,15.08873551,0.0001687,53.2169,179.2968,87.4102,272.7083,0.0012021,0.00018913,0.0,0 STARLINK-3734,1 52112U 22029AA  24135.83095379  .00018913  00000-0  12021-2 0  9995,2 52112  53.2169 179.2968 0001687  87.4102 272.7083 15.08873551120561,6917.778,95.435,540.81,538.476,0.0
52112.0,STARLINK-3734,PAYLOAD,2024-05-15 11:50:24,15.0887211,0.0001251,53.2162,176.3236,89.1147,270.9988,0.00034406,5.197e-05,0.0,0 STARLINK-3734,1 52112U 22029AA  24136.49334013  .00005197  00000-0  34406-3 0  9991,2 52112  53.2162 176.3236 0001251  89.1147 270.9988 15.08872110120660,6917.782,95.436,540.513,538.782,0.0
52112.0,STARLINK-3734,PAYLOAD,2024-05-16 02:08:52,15.08869831,0.0001359,53.2165,173.6474,88.0991,272.0157,0.00022217,3.252e-05,0.0,0 STARLINK-3734,1 52112U 22029AA  24137.08949076  .00003252  00000-0  22217-3 0  9995,2 52112  53.2165 173.6474 0001359  88.0991 272.0157 15.08869831120758,6917.789,95.436,540.594,538.714,0.0
52112.0,STARLINK-3734,PAYLOAD,2024-05-16 10:05:47,15.08862451,0.0001287,53.2168,172.1592,85.9463,274.1677,3.8949e-05,3.32e-06,0.0,0 STARLINK-3734,1 52112U 22029AA  24137.42068986  .00000332  00000-0  38949-4 0  9991,2 52112  53.2168 172.1592 0001287  85.9463 274.1677 15.08862451120803,6917.812,95.436,540.567,538.786,0.0
52112.0,STARLINK-3734,PAYLOAD,2024-05-16 19:38:05,15.08866634,0.00013,53.217,170.3752,86.4653,273.6487,8.4423e-05,1.057e-05,0.0,0 STARLINK-3734,1 52112U 22029AA  24137.81812189  .00001057  00000-0  84423-4 0  9999,2 52112  53.2170 170.3752 0001300  86.4653 273.6487 15.08866634120863,6917.799,95.436,540.563,538.765,0.0
52112.0,STARLINK-3734,PAYLOAD,2024-05-17 08:21:10,15.0885568,0.000163,53.2173,167.9939,95.5458,264.572,-6.8549e-05,-1.379e-05,0.0,0 STARLINK-3734,1 52112U 22029AA  24138.34804265 -.00001379  00000-0 -68549-4 0  9994,2 52112  53.2173 167.9939 0001630  95.5458 264.5720 15.08855680120942,6917.832,95.437,540.825,538.57,0.0
52112.0,STARLINK-3734,PAYLOAD,2024-05-17 19:28:52,15.08854827,0.0001564,53.2176,165.9138,93.552,266.5651,9.4747e-06,-1.37e-06,0.0,0 STARLINK-3734,1 52112U 22029AA  24138.81171942 -.00000137  00000-0  94747-5 0  9995,2 52112  53.2176 165.9138 0001564  93.5520 266.5651 15.08854827121014,6917.835,95.437,540.782,538.618,0.0
52112.0,STARLINK-3734,PAYLOAD,2024-05-18 11:22:44,15.08839241,0.0001462,53.217,162.9409,99.5623,260.5534,-9.2584e-05,-1.761e-05,0.0,0 STARLINK-3734,1 52112U 22029AA  24139.47412578 -.00001761  00000-0 -92584-4 0  9992,2 52112  53.2170 162.9409 0001462  99.5623 260.5534 15.08839241121111,6917.883,95.438,540.759,538.736,0.0
52112.0,STARLINK-3734,PAYLOAD,2024-05-19 04:51:59,15.08831509,0.0001535,53.2164,159.6688,102.2254,257.891,-1.483e-05,-5.24e-06,0.0,0 STARLINK-3734,1 52112U 22029AA  24140.20277295 -.00000524  00000-0 -14830-4 0  9994,2 52112  53.2164 159.6688 0001535 102.2254 257.8910 15.08831509121227,6917.906,95.438,540.833,538.709,0.0
52112.0,STARLINK-3734,PAYLOAD,2024-05-20 06:18:10,15.08833422,0.0001534,53.2162,154.9112,104.7058,255.4104,0.00017678,2.526e-05,0.0,0 STARLINK-3734,1 52112U 22029AA  24141.26261845  .00002526  00000-0  17678-3 0  9999,2 52112  53.2162 154.9112 0001534 104.7058 255.4104 15.08833422121385,6917.9,95.438,540.827,538.704,0.0
52112.0,STARLINK-3734,PAYLOAD,2024-05-21 07:44:20,15.08841518,0.0001336,53.2155,150.1602,107.5983,252.5155,0.00019039,2.744e-05,0.0,0 STARLINK-3734,1 52112U 22029AA  24142.32245649  .00002744  00000-0  19039-3 0  9996,2 52112  53.2155 150.1602 0001336 107.5983 252.5155 15.08841518121544,6917.876,95.437,540.665,538.817,0.0
52112.0,STARLINK-3734,PAYLOAD,2024-05-22 04:24:21,15.08836599,0.00014,53.2154,146.2884,93.6717,266.4435,-3.4381e-05,-8.35e-06,0.0,0 STARLINK-3734,1 52112U 22029AA  24143.18358010 -.00000835  00000-0 -34381-4 0  9997,2 52112  53.2154 146.2884 0001400  93.6717 266.4435 15.08836599121675,6917.891,95.438,540.724,538.787,0.0
52112.0,STARLINK-3734,PAYLOAD,2024-05-22 10:45:54,15.08835061,0.0001319,53.2166,145.1006,92.6846,267.4297,1.5998e-06,-2.62e-06,0.0,0 STARLINK-3734,1 52112U 22029AA  24143.44854593 -.00000262  00000-0  15998-5 0  9990,2 52112  53.2166 145.1006 0001319  92.6846 267.4297 15.08835061121718,6917.895,95.438,540.673,538.848,0.0
52112.0,STARLINK-3734,PAYLOAD,2024-05-23 07:25:54,15.08841363,0.0001407,53.2171,141.2351,82.9199,277.1953,7.343e-05,8.81e-06,0.0,0 STARLINK-3734,1 52112U 22029AA  24144.30966082  .00000881  00000-0  73430-4 0  9993,2 52112  53.2171 141.2351 0001407  82.9199 277.1953 15.08841363121848,6917.876,95.437,540.715,538.768,0.0
52112.0,STARLINK-3734,PAYLOAD,2024-05-24 07:16:41,15.08845574,0.0001324,53.2168,136.7744,87.2107,272.9036,0.00016066,2.27e-05,0.0,0 STARLINK-3734,1 52112U 22029AA  24145.30325485  .00002270  00000-0  16066-3 0  9995,2 52112  53.2168 136.7744 0001324  87.2107 272.9036 15.08845574121993,6917.863,95.437,540.644,538.812,0.0
52112.0,STARLINK-3734,PAYLOAD,2024-05-24 23:10:32,15.08841514,0.0001437,53.2169,133.8011,86.1114,274.0042,5.9869e-05,6.65e-06,0.0,0 STARLINK-3734,1 52112U 22029AA  24145.96565935  .00000665  00000-0  59869-4 0  9998,2 52112  53.2169 133.8011 0001437  86.1114 274.0042 15.08841514122092,6917.876,95.437,540.735,538.747,0.0
52112.0,STARLINK-3734,PAYLOAD,2024-05-25 03:56:42,15.08839705,0.0001377,53.2168,132.907,91.1632,268.9518,-1.369e-06,-3.1e-06,0.0,0 STARLINK-3734,1 52112U 22029AA  24146.16438158 -.00000310  00000-0 -13690-5 0  9999,2 52112  53.2168 132.9070 0001377  91.1632 268.9518 15.08839705122123,6917.881,95.438,540.699,538.794,0.0
52112.0,STARLINK-3734,PAYLOAD,2024-05-25 08:42:52,15.08838182,0.0001419,53.2173,132.0157,86.6066,273.5089,-1.6574e-05,-5.52e-06,0.0,0 STARLINK-3734,1 52112U 22029AA  24146.36310298 -.00000552  00000-0 -16574-4 0  9996,2 52112  53.2173 132.0157 0001419  86.6066 273.5089 15.08838182122159,6917.886,95.438,540.733,538.769,0.0
52112.0,STARLINK-3734,PAYLOAD,2024-05-26 05:22:52,15.08841432,0.0001383,53.2172,128.1506,97.2477,262.8672,8.4502e-06,-1.53e-06,0.0,0 STARLINK-3734,1 52112U 22029AA  24147.22421812 -.00000153  00000-0  84502-5 0  9990,2 52112  53.2172 128.1506 0001383  97.2477 262.8672 15.08841432122281,6917.876,95.437,540.698,538.784,0.0
52112.0,STARLINK-3734,PAYLOAD,2024-05-27 05:13:38,15.08893868,0.0001084,53.217,123.6918,103.082,257.0293,-0.00078447,-0.00012769,0.0,0 STARLINK-3734,1 52112U 22029AA  24148.21780951 -.00012769  00000-0 -78447-3 0  9998,2 52112  53.2170 123.6918 0001084 103.0820 257.0293 15.08893868122434,6917.716,95.434,540.331,538.831,0.0
52112.0,STARLINK-3734,PAYLOAD,2024-05-27 05:13:39,15.08832,0.0001338,53.2173,123.6898,97.8346,262.2798,2.9439e-05,1.81e-06,0.0,0 STARLINK-3734,1 52112U 22029AA  24148.21782385  .00000181  00000-0  29439-4 0  9992,2 52112  53.2173 123.6898 0001338  97.8346 262.2798 15.08832000122438,6917.905,95.438,540.695,538.844,0.0
52112.0,STARLINK-3734,PAYLOAD,2024-05-27 14:45:58,15.0883302,0.0001366,53.2174,121.9074,100.1979,259.9168,1.7141e-05,-1.5e-07,0.0,0 STARLINK-3734,1 52112U 22029AA  24148.61526518 -.00000015  00000-0  17141-4 0  9994,2 52112  53.2174 121.9074 0001366 100.1979 259.9168 15.08833020122490,6917.902,95.438,540.712,538.822,0.0
52112.0,STARLINK-3734,PAYLOAD,2024-05-28 08:15:13,15.0883672,0.0001362,53.2173,118.6347,100.4644,259.6501,1.6859e-05,-2e-07,0.0,0 STARLINK-3734,1 52112U 22029AA  24149.34390456 -.00000020  00000-0  16859-4 0  9996,2 52112  53.2173 118.6347 0001362 100.4644 259.6501 15.08836720122604,6917.89,95.438,540.698,538.813,0.0
52112.0,STARLINK-3734,PAYLOAD,2024-05-29 08:06:00,15.08834664,0.0001338,53.2174,114.1746,97.2273,262.8871,4.842e-05,4.83e-06,0.0,0 STARLINK-3734,1 52112U 22029AA  24150.33750736  .00000483  00000-0  48420-4 0  9999,2 52112  53.2174 114.1746 0001338  97.2273 262.8871 15.08834664122750,6917.897,95.438,540.687,538.836,0.0
52112.0,STARLINK-3734,PAYLOAD,2024-05-30 04:46:01,15.08840519,0.0001333,53.2176,110.3089,95.1199,264.9946,6.4381e-05,7.37e-06,0.0,0 STARLINK-3734,1 52112U 22029AA  24151.19862555  .00000737  00000-0  64381-4 0  9993,2 52112  53.2176 110.3089 0001333  95.1199 264.9946 15.08840519122885,6917.879,95.438,540.666,538.822,0.0
52112.0,STARLINK-3734,PAYLOAD,2024-05-30 06:21:24,15.08841449,0.0001323,53.2175,110.0113,91.6692,268.4451,7.0121e-05,8.28e-06,0.0,0 STARLINK-3734,1 52112U 22029AA  24151.26486532  .00000828  00000-0  70121-4 0  9998,2 52112  53.2175 110.0113 0001323  91.6692 268.4451 15.08841449122891,6917.876,95.437,540.656,538.826,0.0
